HIMAWARI-8              
1 40267U 14060A   24024.04355050 -.00000275  00000+0  00000+0 0  9997
2 40267   0.0116 225.3531 0001089  78.5352 335.2804  1.00271795 34080
